norad_id,name,regime,epoch,line1,line2,inclination,eccentricity,mean_motion,raan,arg_pericenter,mean_anomaly
25049,SIRIUS 2 (GE-1E),GEO,23012.87832880,1 25049U 97071A   23012.87832880 -.00000223  00000-0  00000-0 0    18,2 25049   9.8884  42.7227 0001722 350.3839 198.9946  0.99409133 91684,9.8884,0.0001722,0.99409133,42.7227,350.3839,198.9946
25049,SIRIUS 2 (GE-1E),GEO,23013.47484520,1 25049U 97071A   23013.47484520 -.00000234  00000-0  00000-0 0    11,2 25049   9.8894  42.7191 0001756 349.7363  53.1271  0.99409162 91692,9.8894,0.0001756,0.99409162,42.7191,349.7363,53.1271
25049,SIRIUS 2 (GE-1E),GEO,23013.80674432,1 25049U 97071A   23013.80674432 -.00000240  00000-0  00000-0 0    18,2 25049   9.8900  42.7171 0001772 349.6995 171.9449  0.99409152 91691,9.89,0.0001772,0.99409152,42.7171,349.6995,171.9449
25049,SIRIUS 2 (GE-1E),GEO,23014.51148226,1 25049U 97071A   23014.51148226 -.00000252  00000-0  00000-0 0    17,2 25049   9.8911  42.7128 0001805 349.1016  64.7562  0.99409103 91704,9.8911,0.0001805,0.99409103,42.7128,349.1016,64.7562
25049,SIRIUS 2 (GE-1E),GEO,23014.88536088,1 25049U 97071A   23014.88536088 -.00000258  00000-0  00000+0 0  1458,2 25049   9.8917  42.7105 0001824 349.0501 198.6139  0.99409102 91788,9.8917,0.0001824,0.99409102,42.7105,349.0501,198.6139
25049,SIRIUS 2 (GE-1E),GEO,23015.58782573,1 25049U 97071A   23015.58782573 -.00000270  00000-0  00000-0 0    14,2 25049   9.8929  42.7062 0001859 348.5409  90.5231  0.99409020 91717,9.8929,0.0001859,0.9940902,42.7062,348.5409,90.5231
25049,SIRIUS 2 (GE-1E),GEO,23015.88884052,1 25049U 97071A   23015.88884052 -.00000274  00000-0  00000-0 0    16,2 25049   9.8934  42.7043 0001875 348.4667 198.3256  0.99408979 91711,9.8934,0.0001875,0.99408979,42.7043,348.4667,198.3256
25049,SIRIUS 2 (GE-1E),GEO,23016.58006490,1 25049U 97071A   23016.58006490 -.00000284  00000-0  00000-0 0    17,2 25049   9.8945  42.7000 0001915 348.0438  86.1268  0.99408890 91723,9.8945,0.0001915,0.9940889,42.7,348.0438,86.1268
25049,SIRIUS 2 (GE-1E),GEO,23016.82619045,1 25049U 97071A   23016.82619045 -.00000288  00000-0  00000-0 0    14,2 25049   9.8949  42.6985 0001930 348.0322 174.2230  0.99408854 91725,9.8949,0.000193,0.99408854,42.6985,348.0322,174.223
25049,SIRIUS 2 (GE-1E),GEO,23016.93139716,1 25049U 97071A   23016.93139716 -.00000289  00000-0  00000+0 0  1468,2 25049   9.8950  42.6978 0001938 347.9836 211.9235  0.99408834 91806,9.895,0.0001938,0.99408834,42.6978,347.9836,211.9235
25049,SIRIUS 2 (GE-1E),GEO,23017.61916907,1 25049U 97071A   23017.61916907 -.00000299  00000-0  00000-0 0    11,2 25049   9.8961  42.6934 0001980 347.6834  98.3666  0.99408723 91736,9.8961,0.000198,0.99408723,42.6934,347.6834,98.3666
25049,SIRIUS 2 (GE-1E),GEO,23017.87271792,1 25049U 97071A   23017.87271792 -.00000302  00000-0  00000-0 0    10,2 25049   9.8965  42.6918 0001996 347.6559 189.1347  0.99408655 91732,9.8965,0.0001996,0.99408655,42.6918,347.6559,189.1347
25049,SIRIUS 2 (GE-1E),GEO,23018.52562979,1 25049U 97071A   23018.52562979 -.00000309  00000-0  00000-0 0    10,2 25049   9.8976  42.6875 0002042 347.3746  63.0808  0.99408466 91747,9.8976,0.0002042,0.99408466,42.6875,347.3746,63.0808
25049,SIRIUS 2 (GE-1E),GEO,23018.89357285,1 25049U 97071A   23018.89357285 -.00000313  00000-0  00000-0 0    17,2 25049   9.8982  42.6852 0002062 347.3584 194.7782  0.99408382 91741,9.8982,0.0002062,0.99408382,42.6852,347.3584,194.7782
25049,SIRIUS 2 (GE-1E),GEO,23019.42341052,1 25049U 97071A   23019.42341052 -.00000318  00000-0  00000+0 0  1477,2 25049   9.8991  42.6817 0002096 347.2463  24.5080  0.99408184 91835,9.8991,0.0002096,0.99408184,42.6817,347.2463,24.508
25049,SIRIUS 2 (GE-1E),GEO,23019.62469199,1 25049U 97071A   23019.62469199 -.00000320  00000-0  00000-0 0    15,2 25049   9.8994  42.6804 0002110 347.2612  96.5284  0.99408135 91759,9.8994,0.000211,0.99408135,42.6804,347.2612,96.5284
25049,SIRIUS 2 (GE-1E),GEO,23020.42202035,1 25049U 97071A   23020.42202035 -.00000326  00000-0  00000-0 0    15,2 25049   9.9006  42.6752 0002169 347.2706  21.8675  0.99407855 91768,9.9006,0.0002169,0.99407855,42.6752,347.2706,21.8675
25049,SIRIUS 2 (GE-1E),GEO,23021.88938262,1 25049U 97071A   23021.88938262 -.00000331  00000-0  00000+0 0  1481,2 25049   9.9030  42.6656 0002273 347.4192 186.8584  0.99407298 91857,9.903,0.0002273,0.99407298,42.6656,347.4192,186.8584
25049,SIRIUS 2 (GE-1E),GEO,23023.91691642,1 25049U 97071A   23023.91691642 -.00000325  00000-0  00000+0 0  1499,2 25049   9.9063  42.6522 0002421 347.9869 191.8983  0.99406379 91876,9.9063,0.0002421,0.99406379,42.6522,347.9869,191.8983
25049,SIRIUS 2 (GE-1E),GEO,23025.61590495,1 25049U 97071A   23025.61590495 -.00000308  00000-0  00000-0 0    11,2 25049   9.9091  42.6412 0002513 348.7720  79.1368  0.99405535 91814,9.9091,0.0002513,0.99405535,42.6412,348.772,79.1368
25049,SIRIUS 2 (GE-1E),GEO,23026.03174653,1 25049U 97071A   23026.03174653 -.00000302  00000-0  00000+0 0  1500,2 25049   9.9098  42.6385 0002550 348.8223 227.9028  0.99405278 91898,9.9098,0.000255,0.99405278,42.6385,348.8223,227.9028
25049,SIRIUS 2 (GE-1E),GEO,23026.63343954,1 25049U 97071A   23026.63343954 -.00000293  00000-0  00000-0 0    13,2 25049   9.9108  42.6347 0002588 349.2636  82.7912  0.99405000 91827,9.9108,0.0002588,0.99405,42.6347,349.2636,82.7912
25049,SIRIUS 2 (GE-1E),GEO,23027.60468519,1 25049U 97071A   23027.60468519 -.00000277  00000-0  00000-0 0    18,2 25049   9.9124  42.6286 0002649 349.7168  69.9165  0.99404480 91839,9.9124,0.0002649,0.9940448,42.6286,349.7168,69.9165
25049,SIRIUS 2 (GE-1E),GEO,23027.77876767,1 25049U 97071A   23027.77876767 -.00000274  00000-0  00000-0 0    11,2 25049   9.9127  42.6275 0002662 349.6931 132.2384  0.99404382 91830,9.9127,0.0002662,0.99404382,42.6275,349.6931,132.2384
25049,SIRIUS 2 (GE-1E),GEO,23028.48868664,1 25049U 97071A   23028.48868664 -.00000260  00000-0  00000-0 0    12,2 25049   9.9139  42.6231 0002695 350.1415  25.8465  0.99403999 91846,9.9139,0.0002695,0.99403999,42.6231,350.1415,25.8465
25049,SIRIUS 2 (GE-1E),GEO,23029.50257438,1 25049U 97071A   23029.50257438 -.00000239  00000-0  00000-0 0    13,2 25049   9.9155  42.6168 0002756 350.6075  28.2150  0.99403449 91857,9.9155,0.0002756,0.99403449,42.6168,350.6075,28.215
25049,SIRIUS 2 (GE-1E),GEO,23030.51715819,1 25049U 97071A   23030.51715819 -.00000216  00000-0  00000+0 0  1529,2 25049   9.9172  42.6105 0002797 350.9658  30.9391  0.99402937 91940,9.9172,0.0002797,0.99402937,42.6105,350.9658,30.9391
25049,SIRIUS 2 (GE-1E),GEO,23031.51421880,1 25049U 97071A   23031.51421880 -.00000192  00000-0  00000-0 0    19,2 25049   9.9189  42.6043 0002845 351.3198  27.3943  0.99402442 91873,9.9189,0.0002845,0.99402442,42.6043,351.3198,27.3943
25049,SIRIUS 2 (GE-1E),GEO,23031.84957892,1 25049U 97071A   23031.84957892 -.00000184  00000-0  00000-0 0    13,2 25049   9.9195  42.6022 0002868 351.3280 147.3983  0.99402292 91874,9.9195,0.0002868,0.99402292,42.6022,351.328,147.3983
25049,SIRIUS 2 (GE-1E),GEO,23032.51767944,1 25049U 97071A   23032.51767944 -.00000167  00000-0  00000+0 0  1533,2 25049   9.9206  42.5981 0002899 351.6671  26.1444  0.99401964 91962,9.9206,0.0002899,0.99401964,42.5981,351.6671,26.1444
25049,SIRIUS 2 (GE-1E),GEO,23033.52132791,1 25049U 97071A   23033.52132791 -.00000142  00000-0  00000-0 0    17,2 25049   9.9223  42.5919 0002951 351.9727  25.0013  0.99401508 91892,9.9223,0.0002951,0.99401508,42.5919,351.9727,25.0013
25049,SIRIUS 2 (GE-1E),GEO,23034.52443708,1 25049U 97071A   23034.52443708 -.00000115  00000-0  00000-0 0    11,2 25049   9.9240  42.5857 0002989 352.1901  23.7534  0.99401132 91908,9.924,0.0002989,0.99401132,42.5857,352.1901,23.7534
25049,SIRIUS 2 (GE-1E),GEO,23035.52786576,1 25049U 97071A   23035.52786576 -.00000089  00000-0  00000-0 0    15,2 25049   9.9257  42.5795 0003030 352.3786  22.6473  0.99400801 91911,9.9257,0.000303,0.99400801,42.5795,352.3786,22.6473
25049,SIRIUS 2 (GE-1E),GEO,23036.60025067,1 25049U 97071A   23036.60025067 -.00000061  00000-0  00000+0 0  1555,2 25049   9.9276  42.5729 0003088 352.5958  46.1883  0.99400521 92001,9.9276,0.0003088,0.99400521,42.5729,352.5958,46.1883
25049,SIRIUS 2 (GE-1E),GEO,23036.67540296,1 25049U 97071A   23036.67540296 -.00000059  00000-0  00000-0 0    16,2 25049   9.9277  42.5724 0003090 352.5817  73.0960  0.99400505 91921,9.9277,0.000309,0.99400505,42.5724,352.5817,73.096
25049,SIRIUS 2 (GE-1E),GEO,23037.48105148,1 25049U 97071A   23037.48105148 -.00000038  00000-0  00000-0 0    16,2 25049   9.9291  42.5674 0003121 352.7326   1.2498  0.99400339 91927,9.9291,0.0003121,0.99400339,42.5674,352.7326,1.2498
25049,SIRIUS 2 (GE-1E),GEO,23038.59090704,1 25049U 97071A   23038.59090704 -.00000011  00000-0  00000-0 0    11,2 25049   9.9310  42.5606 0003174 352.8630  38.2852  0.99400182 91943,9.931,0.0003174,0.99400182,42.5606,352.863,38.2852
25049,SIRIUS 2 (GE-1E),GEO,23038.66549803,1 25049U 97071A   23038.66549803 -.00000009  00000-0  00000-0 0    15,2 25049   9.9311  42.5601 0003176 352.8665  64.9741  0.99400170 91949,9.9311,0.0003176,0.9940017,42.5601,352.8665,64.9741
25049,SIRIUS 2 (GE-1E),GEO,23039.60224971,1 25049U 97071A   23039.60224971  .00000013  00000-0  00000-0 0    10,2 25049   9.9328  42.5543 0003216 352.9667  40.0920  0.99400064 91957,9.9328,0.0003216,0.99400064,42.5543,352.9667,40.092
25049,SIRIUS 2 (GE-1E),GEO,23039.67985973,1 25049U 97071A   23039.67985973  .00000014  00000-0  00000-0 0    14,2 25049   9.9329  42.5539 0003218 352.9584  67.8728  0.99400049 91959,9.9329,0.0003218,0.99400049,42.5539,352.9584,67.8728
25049,SIRIUS 2 (GE-1E),GEO,23040.04325958,1 25049U 97071A   23040.04325958  .00000022  00000-0  00000-0 0    17,2 25049   9.9335  42.5516 0003232 353.0726 197.8012  0.99400010 91955,9.9335,0.0003232,0.9940001,42.5516,353.0726,197.8012
25049,SIRIUS 2 (GE-1E),GEO,23041.02132963,1 25049U 97071A   23041.02132963  .00000042  00000-0  00000-0 0    10,2 25049   9.9352  42.5456 0003273 353.1523 187.7254  0.99399988 91966,9.9352,0.0003273,0.99399988,42.5456,353.1523,187.7254
